{
  "type": "FeatureCollection",
  "features": [
    {
      "type": "Feature",
      "properties": {
        "norad_id": 28054,
        "name": "DMSP 5D-3 F16 (USA 172)",
        "group": "weather",
        "lat": -47.18106385431461,
        "lon": 23.326946060319646,
        "alt_km": 846.7656733431877,
        "timestamp": "2025-12-21T22:41:41.090612+00:00",
        "meta_object_name": "DMSP 5D-3 F16 (USA 172)",
        "meta_object_id": "2003-048A",
        "meta_epoch": "2025-12-21T14:56:59.126784",
        "meta_mean_motion": 14.14427158,
        "meta_eccentricity": 0.00062735,
        "meta_inclination": 99.0038,
        "meta_ra_of_asc_node": 13.1495,
        "meta_arg_of_pericenter": 292.5269,
        "meta_mean_anomaly": 177.2775,
        "meta_ephemeris_type": 0,
        "meta_classification_type": "U",
        "meta_norad_cat_id": 28054,
        "meta_element_set_no": 999,
        "meta_rev_at_epoch": 14438,
        "meta_bstar": 7.00682e-05,
        "meta_mean_motion_dot": 8.9e-07,
        "meta_mean_motion_ddot": 0,
        "tle_line1": "1 28054U 03048A   25355.62290656  .00000089  00000+0  70068-4 0  9991",
        "tle_line2": "2 28054  99.0038  13.1495 0006273 292.5269 177.2775 14.14427158144389"
      },
      "geometry": {
        "type": "Point",
        "coordinates": [
          23.326946060319646,
          -47.18106385431461
        ]
      }
    },
    {
      "type": "Feature",
      "properties": {
        "norad_id": 28912,
        "name": "METEOSAT-9 (MSG-2)",
        "group": "weather",
        "lat": 7.807690320878266,
        "lon": 116.16476434752373,
        "alt_km": 36109.80882145114,
        "timestamp": "2025-12-21T22:41:41.090661+00:00",
        "meta_object_name": "METEOSAT-9 (MSG-2)",
        "meta_object_id": "2005-049B",
        "meta_epoch": "2025-12-20T18:34:58.766592",
        "meta_mean_motion": 1.00265537,
        "meta_eccentricity": 0.01042854,
        "meta_inclination": 8.9429,
        "meta_ra_of_asc_node": 55.8777,
        "meta_arg_of_pericenter": 282.8799,
        "meta_mean_anomaly": 74.1046,
        "meta_ephemeris_type": 0,
        "meta_classification_type": "U",
        "meta_norad_cat_id": 28912,
        "meta_element_set_no": 999,
        "meta_rev_at_epoch": 520,
        "meta_bstar": 0,
        "meta_mean_motion_dot": 1.08e-06,
        "meta_mean_motion_ddot": 0,
        "tle_line1": "1 28912U 05049B   25354.77429128  .00000108  00000+0  00000+0 0  9996",
        "tle_line2": "2 28912   8.9429  55.8777 0104285 282.8799  74.1046  1.00265537  5208"
      },
      "geometry": {
        "type": "Point",
        "coordinates": [
          116.16476434752373,
          7.807690320878266
        ]
      }
    },
    {
      "type": "Feature",
      "properties": {
        "norad_id": 29522,
        "name": "DMSP 5D-3 F17 (USA 191)",
        "group": "weather",
        "lat": -81.17254054365311,
        "lon": 99.06822899401051,
        "alt_km": 847.6619895525837,
        "timestamp": "2025-12-21T22:41:41.090679+00:00",
        "meta_object_name": "DMSP 5D-3 F17 (USA 191)",
        "meta_object_id": "2006-050A",
        "meta_epoch": "2025-12-21T12:56:33.785088",
        "meta_mean_motion": 14.14923292,
        "meta_eccentricity": 0.00097723,
        "meta_inclination": 98.739,
        "meta_ra_of_asc_node": 0.7451,
        "meta_arg_of_pericenter": 198.3974,
        "meta_mean_anomaly": 161.6848,
        "meta_ephemeris_type": 0,
        "meta_classification_type": "U",
        "meta_norad_cat_id": 29522,
        "meta_element_set_no": 999,
        "meta_rev_at_epoch": 98729,
        "meta_bstar": 8.7791057e-05,
        "meta_mean_motion_dot": 1.26e-06,
        "meta_mean_motion_ddot": 0,
        "tle_line1": "1 29522U 06050A   25355.53927992  .00000126  00000+0  87791-4 0  9991",
        "tle_line2": "2 29522  98.7390   0.7451 0009772 198.3974 161.6848 14.14923292987297"
      },
      "geometry": {
        "type": "Point",
        "coordinates": [
          99.06822899401051,
          -81.17254054365311
        ]
      }
    },
    {
      "type": "Feature",
      "properties": {
        "norad_id": 32958,
        "name": "FENGYUN 3A",
        "group": "weather",
        "lat": 44.607804619603485,
        "lon": 123.93619883112937,
        "alt_km": 827.724198530068,
        "timestamp": "2025-12-21T22:41:41.090692+00:00",
        "meta_object_name": "FENGYUN 3A",
        "meta_object_id": "2008-026A",
        "meta_epoch": "2025-12-21T13:36:12.790944",
        "meta_mean_motion": 14.19517107,
        "meta_eccentricity": 0.00076548,
        "meta_inclination": 98.6709,
        "meta_ra_of_asc_node": 294.9081,
        "meta_arg_of_pericenter": 281.9296,
        "meta_mean_anomaly": 78.1022,
        "meta_ephemeris_type": 0,
        "meta_classification_type": "U",
        "meta_norad_cat_id": 32958,
        "meta_element_set_no": 999,
        "meta_rev_at_epoch": 91020,
        "meta_bstar": 5.6290084e-05,
        "meta_mean_motion_dot": 7.5e-07,
        "meta_mean_motion_ddot": 0,
        "tle_line1": "1 32958U 08026A   25355.56681471  .00000075  00000+0  56290-4 0  9998",
        "tle_line2": "2 32958  98.6709 294.9081 0007654 281.9296  78.1022 14.19517107910208"
      },
      "geometry": {
        "type": "Point",
        "coordinates": [
          123.93619883112937,
          44.607804619603485
        ]
      }
    },
    {
      "type": "Feature",
      "properties": {
        "norad_id": 35491,
        "name": "GOES 14",
        "group": "weather",
        "lat": -0.9635890306731709,
        "lon": -44.390066185390744,
        "alt_km": 35833.695370367685,
        "timestamp": "2025-12-21T22:41:41.090706+00:00",
        "meta_object_name": "GOES 14",
        "meta_object_id": "2009-033A",
        "meta_epoch": "2025-12-21T12:09:15.385248",
        "meta_mean_motion": 1.00096928,
        "meta_eccentricity": 5.358e-05,
        "meta_inclination": 1.2252,
        "meta_ra_of_asc_node": 85.3172,
        "meta_arg_of_pericenter": 184.7328,
        "meta_mean_anomaly": 247.3042,
        "meta_ephemeris_type": 0,
        "meta_classification_type": "U",
        "meta_norad_cat_id": 35491,
        "meta_element_set_no": 999,
        "meta_rev_at_epoch": 481,
        "meta_bstar": 0,
        "meta_mean_motion_dot": 2.4e-07,
        "meta_mean_motion_ddot": 0,
        "tle_line1": "1 35491U 09033A   25355.50642807  .00000024  00000+0  00000+0 0  9993",
        "tle_line2": "2 35491   1.2252  85.3172 0000535 184.7328 247.3042  1.00096928  4818"
      },
      "geometry": {
        "type": "Point",
        "coordinates": [
          -44.390066185390744,
          -0.9635890306731709
        ]
      }
    },
    {
      "type": "Feature",
      "properties": {
        "norad_id": 35951,
        "name": "DMSP 5D-3 F18 (USA 210)",
        "group": "weather",
        "lat": 47.773481601283606,
        "lon": 162.224809084198,
        "alt_km": 839.2042157074748,
        "timestamp": "2025-12-21T22:41:41.090719+00:00",
        "meta_object_name": "DMSP 5D-3 F18 (USA 210)",
        "meta_object_id": "2009-057A",
        "meta_epoch": "2025-12-21T13:35:24.927936",
        "meta_mean_motion": 14.14774744,
        "meta_eccentricity": 0.00118301,
        "meta_inclination": 98.8844,
        "meta_ra_of_asc_node": 331.9233,
        "meta_arg_of_pericenter": 39.4817,
        "meta_mean_anomaly": 320.7216,
        "meta_ephemeris_type": 0,
        "meta_classification_type": "U",
        "meta_norad_cat_id": 35951,
        "meta_element_set_no": 999,
        "meta_rev_at_epoch": 83447,
        "meta_bstar": 0.00014856151,
        "meta_mean_motion_dot": 2.42e-06,
        "meta_mean_motion_ddot": 0,
        "tle_line1": "1 35951U 09057A   25355.56626074  .00000242  00000+0  14856-3 0  9994",
        "tle_line2": "2 35951  98.8844 331.9233 0011830  39.4817 320.7216 14.14774744834475"
      },
      "geometry": {
        "type": "Point",
        "coordinates": [
          162.224809084198,
          47.773481601283606
        ]
      }
    },
    {
      "type": "Feature",
      "properties": {
        "norad_id": 36411,
        "name": "EWS-G2 (GOES 15)",
        "group": "weather",
        "lat": 0.6254431674255699,
        "lon": 132.48229955961548,
        "alt_km": 35801.546048489276,
        "timestamp": "2025-12-21T22:41:41.090731+00:00",
        "meta_object_name": "EWS-G2 (GOES 15)",
        "meta_object_id": "2010-008A",
        "meta_epoch": "2025-12-21T11:46:40.910592",
        "meta_mean_motion": 1.00270942,
        "meta_eccentricity": 0.00054535,
        "meta_inclination": 0.834,
        "meta_ra_of_asc_node": 86.0823,
        "meta_arg_of_pericenter": 177.9274,
        "meta_mean_anomaly": 64.3316,
        "meta_ephemeris_type": 0,
        "meta_classification_type": "U",
        "meta_norad_cat_id": 36411,
        "meta_element_set_no": 999,
        "meta_rev_at_epoch": 5785,
        "meta_bstar": 0,
        "meta_mean_motion_dot": 6e-07,
        "meta_mean_motion_ddot": 0,
        "tle_line1": "1 36411U 10008A   25355.49075128  .00000060  00000+0  00000+0 0  9994",
        "tle_line2": "2 36411   0.8340  86.0823 0005453 177.9274  64.3316  1.00270942 57856"
      },
      "geometry": {
        "type": "Point",
        "coordinates": [
          132.48229955961548,
          0.6254431674255699
        ]
      }
    }
  ]
}